SHIYAN-1 (SY-1)         
1 28220U 04012A   26068.73650539  .00016393  00000+0  54854-3 0  9991
2 28220  97.8764 140.5238 0005873  23.6952 336.4557 15.31043463195862
STARLINK-35791          
1 66896U 25283U   26068.27018726  .00026498  00000+0  90370-3 0  9990
2 66896  53.1626  25.8507 0001187  53.7672 306.3438 15.30196711 15786
